COSMOS 2242             
1 22626U 93024A   26068.97023082  .00002488  00000+0  21610-3 0  9993
2 22626  82.5157 266.4481 0015170 307.8411  52.1437 14.96550444780433
SL-16 R/B               
1 22803U 93059B   26068.97097136 -.00000150  00000+0 -50236-4 0  9992
2 22803  70.9927  10.5325 0018539 216.1475 143.8397 14.17231619679573
ARIANE 40 R/B           
1 22830U 93061H   26068.76840465  .00000240  00000+0  10374-3 0  9999
2 22830  98.4915 137.6545 0009538 284.8597  75.1531 14.32860991694118
COSMOS 2278             
1 23087U 94023A   26068.73915940  .00000120  00000+0  87573-4 0  9994
2 23087  71.0552 174.9938 0008032  13.0676 347.0653 14.14378967644810
SL-16 R/B               
1 23088U 94023B   26068.43213896 -.00000240  00000+0 -99429-4 0  9991
2 23088  70.9985  71.4279 0005735 286.1076  73.9415 14.15011960646059
SL-16 R/B               
1 23343U 94074B   26068.99613272  .00000592  00000+0  85934-4 0  9998
2 23343  97.7109  99.8014 0005798 209.3381 210.8055 14.79408399687293
SL-16 R/B               
1 23405U 94077B   26068.97918363 -.00000016  00000+0  16235-4 0  9997
2 23405  70.9853 351.8800 0003082 211.7885 148.3052 14.15561247616279
ARIANE 40+ R/B          
1 23561U 95021B   26068.82648447  .00000361  00000+0  12902-3 0  9995
2 23561  98.4496 140.3073 0007650 136.0582 335.1620 14.39772557619264
SL-16 R/B               
1 23705U 95058B   26068.70352616  .00000314  00000+0  18469-3 0  9994
2 23705  71.0220 180.2259 0010793 125.7746 234.4382 14.15495248567850
SL-16 R/B               
1 24298U 96051B   26068.74107470  .00000113  00000+0  87952-4 0  9997
2 24298  70.7604 175.1301 0015054 147.9840 212.2198 14.12415709521655
ORBVIEW 2 (SEASTAR)     
1 24883U 97037A   26068.97550831  .00000388  00000+0  15112-3 0  9992
2 24883  98.8568 233.2949 0003097  71.5555 288.5967 14.35495219508517
SL-16 R/B               
1 25400U 98043G   26068.87192553  .00000112  00000+0  65699-4 0  9999
2 25400  98.8253  22.2366 0010209  19.8771 340.2805 14.26049928439018
