CCSDS_OMM_VERS = 2.0
CREATION_DATE  = 
ORIGINATOR     = 

OBJECT_NAME    = COSMOS 2242
OBJECT_ID      = 1993-024A
CENTER_NAME    = EARTH
REF_FRAME      = TEME
TIME_SYSTEM    = UTC
MEAN_ELEMENT_THEORY = SGP/SGP4

EPOCH          = 2026-03-09T23:17:07.942848
MEAN_MOTION    = 14.96550444
ECCENTRICITY   = .00151707
INCLINATION    = 82.5157
RA_OF_ASC_NODE = 266.4481
ARG_OF_PERICENTER = 307.8411
MEAN_ANOMALY   = 52.1437

EPHEMERIS_TYPE = 0
CLASSIFICATION_TYPE = U
NORAD_CAT_ID   = 22626
ELEMENT_SET_NO = 999
REV_AT_EPOCH   = 78043
BSTAR          = .21609887E-3
MEAN_MOTION_DOT = .2488E-4
MEAN_MOTION_DDOT = 0

CCSDS_OMM_VERS = 2.0
CREATION_DATE  = 
ORIGINATOR     = 

OBJECT_NAME    = SL-16 R/B
OBJECT_ID      = 1993-059B
CENTER_NAME    = EARTH
REF_FRAME      = TEME
TIME_SYSTEM    = UTC
MEAN_ELEMENT_THEORY = SGP/SGP4

EPOCH          = 2026-03-09T23:18:11.925504
MEAN_MOTION    = 14.17231619
ECCENTRICITY   = .00185394
INCLINATION    = 70.9927
RA_OF_ASC_NODE = 10.5325
ARG_OF_PERICENTER = 216.1475
MEAN_ANOMALY   = 143.8397

EPHEMERIS_TYPE = 0
CLASSIFICATION_TYPE = U
NORAD_CAT_ID   = 22803
ELEMENT_SET_NO = 999
REV_AT_EPOCH   = 67957
BSTAR          = -.50235797E-4
MEAN_MOTION_DOT = -.15E-5
MEAN_MOTION_DDOT = 0

CCSDS_OMM_VERS = 2.0
CREATION_DATE  = 
ORIGINATOR     = 

OBJECT_NAME    = ARIANE 40 R/B
OBJECT_ID      = 1993-061H
CENTER_NAME    = EARTH
REF_FRAME      = TEME
TIME_SYSTEM    = UTC
MEAN_ELEMENT_THEORY = SGP/SGP4

EPOCH          = 2026-03-09T18:26:30.161760
MEAN_MOTION    = 14.32860991
ECCENTRICITY   = .0009538
INCLINATION    = 98.4915
RA_OF_ASC_NODE = 137.6545
ARG_OF_PERICENTER = 284.8597
MEAN_ANOMALY   = 75.1531

EPHEMERIS_TYPE = 0
CLASSIFICATION_TYPE = U
NORAD_CAT_ID   = 22830
ELEMENT_SET_NO = 999
REV_AT_EPOCH   = 69411
BSTAR          = .10373604E-3
MEAN_MOTION_DOT = .24E-5
MEAN_MOTION_DDOT = 0

CCSDS_OMM_VERS = 2.0
CREATION_DATE  = 
ORIGINATOR     = 

OBJECT_NAME    = COSMOS 2278
OBJECT_ID      = 1994-023A
CENTER_NAME    = EARTH
REF_FRAME      = TEME
TIME_SYSTEM    = UTC
MEAN_ELEMENT_THEORY = SGP/SGP4

EPOCH          = 2026-03-09T17:44:23.372160
MEAN_MOTION    = 14.14378967
ECCENTRICITY   = .00080329
INCLINATION    = 71.0552
RA_OF_ASC_NODE = 174.9938
ARG_OF_PERICENTER = 13.0676
MEAN_ANOMALY   = 347.0653

EPHEMERIS_TYPE = 0
CLASSIFICATION_TYPE = U
NORAD_CAT_ID   = 23087
ELEMENT_SET_NO = 999
REV_AT_EPOCH   = 64481
BSTAR          = .87573091E-4
MEAN_MOTION_DOT = .12E-5
MEAN_MOTION_DDOT = 0

CCSDS_OMM_VERS = 2.0
CREATION_DATE  = 
ORIGINATOR     = 

OBJECT_NAME    = SL-16 R/B
OBJECT_ID      = 1994-023B
CENTER_NAME    = EARTH
REF_FRAME      = TEME
TIME_SYSTEM    = UTC
MEAN_ELEMENT_THEORY = SGP/SGP4

EPOCH          = 2026-03-09T10:22:16.806144
MEAN_MOTION    = 14.15011960
ECCENTRICITY   = .00057353
INCLINATION    = 70.9985
RA_OF_ASC_NODE = 71.4279
ARG_OF_PERICENTER = 286.1076
MEAN_ANOMALY   = 73.9415

EPHEMERIS_TYPE = 0
CLASSIFICATION_TYPE = U
NORAD_CAT_ID   = 23088
ELEMENT_SET_NO = 999
REV_AT_EPOCH   = 64605
BSTAR          = -.99429243E-4
MEAN_MOTION_DOT = -.24E-5
MEAN_MOTION_DDOT = 0

CCSDS_OMM_VERS = 2.0
CREATION_DATE  = 
ORIGINATOR     = 

OBJECT_NAME    = SL-16 R/B
OBJECT_ID      = 1994-074B
CENTER_NAME    = EARTH
REF_FRAME      = TEME
TIME_SYSTEM    = UTC
MEAN_ELEMENT_THEORY = SGP/SGP4

EPOCH          = 2026-03-09T23:54:25.867008
MEAN_MOTION    = 14.79408399
ECCENTRICITY   = .00057986
INCLINATION    = 97.7109
RA_OF_ASC_NODE = 99.8014
ARG_OF_PERICENTER = 209.3381
MEAN_ANOMALY   = 210.8055

EPHEMERIS_TYPE = 0
CLASSIFICATION_TYPE = U
NORAD_CAT_ID   = 23343
ELEMENT_SET_NO = 999
REV_AT_EPOCH   = 68729
BSTAR          = .85933802E-4
MEAN_MOTION_DOT = .592E-5
MEAN_MOTION_DDOT = 0

CCSDS_OMM_VERS = 2.0
CREATION_DATE  = 
ORIGINATOR     = 

OBJECT_NAME    = SL-16 R/B
OBJECT_ID      = 1994-077B
CENTER_NAME    = EARTH
REF_FRAME      = TEME
TIME_SYSTEM    = UTC
MEAN_ELEMENT_THEORY = SGP/SGP4

EPOCH          = 2026-03-09T23:30:01.465632
MEAN_MOTION    = 14.15561247
ECCENTRICITY   = .00030825
INCLINATION    = 70.9853
RA_OF_ASC_NODE = 351.8800
ARG_OF_PERICENTER = 211.7885
MEAN_ANOMALY   = 148.3052

EPHEMERIS_TYPE = 0
CLASSIFICATION_TYPE = U
NORAD_CAT_ID   = 23405
ELEMENT_SET_NO = 999
REV_AT_EPOCH   = 61627
BSTAR          = .16235359E-4
MEAN_MOTION_DOT = -.16E-6
MEAN_MOTION_DDOT = 0

CCSDS_OMM_VERS = 2.0
CREATION_DATE  = 
ORIGINATOR     = 

OBJECT_NAME    = ARIANE 40+ R/B
OBJECT_ID      = 1995-021B
CENTER_NAME    = EARTH
REF_FRAME      = TEME
TIME_SYSTEM    = UTC
MEAN_ELEMENT_THEORY = SGP/SGP4

EPOCH          = 2026-03-09T19:50:08.258208
MEAN_MOTION    = 14.39772557
ECCENTRICITY   = .000765
INCLINATION    = 98.4496
RA_OF_ASC_NODE = 140.3073
ARG_OF_PERICENTER = 136.0582
MEAN_ANOMALY   = 335.1620

EPHEMERIS_TYPE = 0
CLASSIFICATION_TYPE = U
NORAD_CAT_ID   = 23561
ELEMENT_SET_NO = 999
REV_AT_EPOCH   = 61926
BSTAR          = .12901937E-3
MEAN_MOTION_DOT = .361E-5
MEAN_MOTION_DDOT = 0

CCSDS_OMM_VERS = 2.0
CREATION_DATE  = 
ORIGINATOR     = 

OBJECT_NAME    = SL-16 R/B
OBJECT_ID      = 1995-058B
CENTER_NAME    = EARTH
REF_FRAME      = TEME
TIME_SYSTEM    = UTC
MEAN_ELEMENT_THEORY = SGP/SGP4

EPOCH          = 2026-03-09T16:53:04.660224
MEAN_MOTION    = 14.15495248
ECCENTRICITY   = .00107933
INCLINATION    = 71.0220
RA_OF_ASC_NODE = 180.2259
ARG_OF_PERICENTER = 125.7746
MEAN_ANOMALY   = 234.4382

EPHEMERIS_TYPE = 0
CLASSIFICATION_TYPE = U
NORAD_CAT_ID   = 23705
ELEMENT_SET_NO = 999
REV_AT_EPOCH   = 56785
BSTAR          = .18469413E-3
MEAN_MOTION_DOT = .314E-5
MEAN_MOTION_DDOT = 0

CCSDS_OMM_VERS = 2.0
CREATION_DATE  = 
ORIGINATOR     = 

OBJECT_NAME    = SL-16 R/B
OBJECT_ID      = 1996-051B
CENTER_NAME    = EARTH
REF_FRAME      = TEME
TIME_SYSTEM    = UTC
MEAN_ELEMENT_THEORY = SGP/SGP4

EPOCH          = 2026-03-09T17:47:08.854080
MEAN_MOTION    = 14.12415709
ECCENTRICITY   = .00150547
INCLINATION    = 70.7604
RA_OF_ASC_NODE = 175.1301
ARG_OF_PERICENTER = 147.9840
MEAN_ANOMALY   = 212.2198

EPHEMERIS_TYPE = 0
CLASSIFICATION_TYPE = U
NORAD_CAT_ID   = 24298
ELEMENT_SET_NO = 999
REV_AT_EPOCH   = 52165
BSTAR          = .87951502E-4
MEAN_MOTION_DOT = .113E-5
MEAN_MOTION_DDOT = 0

CCSDS_OMM_VERS = 2.0
CREATION_DATE  = 
ORIGINATOR     = 

OBJECT_NAME    = ORBVIEW 2 (SEASTAR)
OBJECT_ID      = 1997-037A
CENTER_NAME    = EARTH
REF_FRAME      = TEME
TIME_SYSTEM    = UTC
MEAN_ELEMENT_THEORY = SGP/SGP4

EPOCH          = 2026-03-09T23:24:43.917984
MEAN_MOTION    = 14.35495219
ECCENTRICITY   = .00030976
INCLINATION    = 98.8568
RA_OF_ASC_NODE = 233.2949
ARG_OF_PERICENTER = 71.5555
MEAN_ANOMALY   = 288.5967

EPHEMERIS_TYPE = 0
CLASSIFICATION_TYPE = U
NORAD_CAT_ID   = 24883
ELEMENT_SET_NO = 999
REV_AT_EPOCH   = 50851
BSTAR          = .1511202E-3
MEAN_MOTION_DOT = .388E-5
MEAN_MOTION_DDOT = 0

CCSDS_OMM_VERS = 2.0
CREATION_DATE  = 
ORIGINATOR     = 

OBJECT_NAME    = SL-16 R/B
OBJECT_ID      = 1998-043G
CENTER_NAME    = EARTH
REF_FRAME      = TEME
TIME_SYSTEM    = UTC
MEAN_ELEMENT_THEORY = SGP/SGP4

EPOCH          = 2026-03-09T20:55:34.365792
MEAN_MOTION    = 14.26049928
ECCENTRICITY   = .00102097
INCLINATION    = 98.8253
RA_OF_ASC_NODE = 22.2366
ARG_OF_PERICENTER = 19.8771
MEAN_ANOMALY   = 340.2805

EPHEMERIS_TYPE = 0
CLASSIFICATION_TYPE = U
NORAD_CAT_ID   = 25400
ELEMENT_SET_NO = 999
REV_AT_EPOCH   = 43901
BSTAR          = .65699284E-4
MEAN_MOTION_DOT = .112E-5
MEAN_MOTION_DDOT = 0

